{
  "norad_id": 47393,
  "name": "STARLINK-2114",
  "history": [
    {
      "epoch": "2026-03-28T22:00:01.999584Z",
      "apogee_km": 361.0561976476756,
      "perigee_km": 356.6009075884185,
      "latitude_deg": 43.8906974966045,
      "longitude_deg": -133.2697428813632,
      "height_km": 365.4136869168046,
      "semi_major_axis_km": 6736.965552618047,
      "eccentricity": 0.00033066,
      "inclination_deg": 53.0413,
      "raan_deg": 249.1051,
      "arg_perigee_deg": 312.7507,
      "mean_anomaly_deg": 167.3138,
      "mean_motion_rev_day": 15.7002393
    },
    {
      "epoch": "2026-03-28T23:01:08.853600Z",
      "apogee_km": 360.8349051059149,
      "perigee_km": 356.6566903947496,
      "latitude_deg": 8.89512865640197e-06,
      "longitude_deg": 77.23491879308177,
      "height_km": 358.2668975356304,
      "semi_major_axis_km": 6736.8827977503315,
      "eccentricity": 0.0003101,
      "inclination_deg": 53.0419,
      "raan_deg": 248.8939,
      "arg_perigee_deg": 311.4752,
      "mean_anomaly_deg": 48.5998,
      "mean_motion_rev_day": 15.70052859
    },
    {
      "epoch": "2026-03-29T21:55:56.830080Z",
      "apogee_km": 360.1255851248934,
      "perigee_km": 355.4899079503266,
      "latitude_deg": 1.5631119457690996e-05,
      "longitude_deg": 87.8710053871437,
      "height_km": 357.05388102245536,
      "semi_major_axis_km": 6735.94474653761,
      "eccentricity": 0.0003441,
      "inclination_deg": 53.0419,
      "raan_deg": 244.1709,
      "arg_perigee_deg": 315.6969,
      "mean_anomaly_deg": 44.3772,
      "mean_motion_rev_day": 15.7038084
    },
    {
      "epoch": "2026-03-30T05:34:09.202944Z",
      "apogee_km": 359.98973630545424,
      "perigee_km": 355.08980088337375,
      "latitude_deg": -1.613507457641888e-05,
      "longitude_deg": -28.568302677132163,
      "height_km": 356.6037498269341,
      "semi_major_axis_km": 6735.676768594414,
      "eccentricity": 0.00036373,
      "inclination_deg": 53.042,
      "raan_deg": 242.5968,
      "arg_perigee_deg": 318.7143,
      "mean_anomaly_deg": 41.3598,
      "mean_motion_rev_day": 15.70474557
    },
    {
      "epoch": "2026-03-30T14:00:03.000384Z",
      "apogee_km": 359.5744335048148,
      "perigee_km": 354.5645175200689,
      "latitude_deg": -6.123688212066465,
      "longitude_deg": 27.47651292255975,
      "height_km": 360.6644780875549,
      "semi_major_axis_km": 6735.206475512441,
      "eccentricity": 0.00037192,
      "inclination_deg": 53.0419,
      "raan_deg": 240.8579,
      "arg_perigee_deg": 320.1209,
      "mean_anomaly_deg": 227.434,
      "mean_motion_rev_day": 15.7063905
    },
    {
      "epoch": "2026-03-30T22:00:00.999936Z",
      "apogee_km": 359.64103884362703,
      "perigee_km": 354.10943859172403,
      "latitude_deg": -53.07177356031642,
      "longitude_deg": -3.657361279992675,
      "height_km": 373.4965601954827,
      "semi_major_axis_km": 6735.012238717675,
      "eccentricity": 0.00041066,
      "inclination_deg": 53.0414,
      "raan_deg": 239.2089,
      "arg_perigee_deg": 322.7783,
      "mean_anomaly_deg": 310.542,
      "mean_motion_rev_day": 15.70706996
    },
    {
      "epoch": "2026-03-31T20:00:01.999008Z",
      "apogee_km": 358.9942045194339,
      "perigee_km": 353.18526053995356,
      "latitude_deg": 44.08867498413522,
      "longitude_deg": 151.90582392326817,
      "height_km": 360.7593351963882,
      "semi_major_axis_km": 6734.226732529693,
      "eccentricity": 0.0004313,
      "inclination_deg": 53.0417,
      "raan_deg": 234.6703,
      "arg_perigee_deg": 326.0332,
      "mean_anomaly_deg": 94.2017,
      "mean_motion_rev_day": 15.70981824
    },
    {
      "epoch": "2026-04-01T20:00:01.999008Z",
      "apogee_km": 358.4170841154555,
      "perigee_km": 351.95578694671985,
      "latitude_deg": -31.361571988378227,
      "longitude_deg": 72.38828886998783,
      "height_km": 361.67813133473214,
      "semi_major_axis_km": 6733.323435531088,
      "eccentricity": 0.0004798,
      "inclination_deg": 53.0422,
      "raan_deg": 229.7167,
      "arg_perigee_deg": 330.9375,
      "mean_anomaly_deg": 348.7302,
      "mean_motion_rev_day": 15.71297963
    },
    {
      "epoch": "2026-04-02T20:00:01.999008Z",
      "apogee_km": 357.688287081196,
      "perigee_km": 350.5359456199849,
      "latitude_deg": -31.308515328600514,
      "longitude_deg": -59.35499893008772,
      "height_km": 365.2187389656953,
      "semi_major_axis_km": 6732.24911635059,
      "eccentricity": 0.0005312,
      "inclination_deg": 53.0419,
      "raan_deg": 224.761,
      "arg_perigee_deg": 334.5238,
      "mean_anomaly_deg": 245.8006,
      "mean_motion_rev_day": 15.71674095
    },
    {
      "epoch": "2026-04-02T22:00:01.999584Z",
      "apogee_km": 357.3934280163112,
      "perigee_km": 350.3129899940868,
      "latitude_deg": -22.142728389437533,
      "longitude_deg": 45.3550945947083,
      "height_km": 356.58028880287685,
      "semi_major_axis_km": 6731.990209005198,
      "eccentricity": 0.00052588,
      "inclination_deg": 53.0418,
      "raan_deg": 224.3474,
      "arg_perigee_deg": 334.0978,
      "mean_anomaly_deg": 358.0126,
      "mean_motion_rev_day": 15.71764764
    },
    {
      "epoch": "2026-04-03T20:00:01.999008Z",
      "apogee_km": 356.64745875879635,
      "perigee_km": 349.1746492092634,
      "latitude_deg": 42.486067392761086,
      "longitude_deg": -135.6232648503472,
      "height_km": 360.0597405962168,
      "semi_major_axis_km": 6731.04805398403,
      "eccentricity": 0.0005551,
      "inclination_deg": 53.0422,
      "raan_deg": 219.8018,
      "arg_perigee_deg": 337.9034,
      "mean_anomaly_deg": 144.6004,
      "mean_motion_rev_day": 15.72094779
    },
    {
      "epoch": "2026-04-04T06:00:02.000160Z",
      "apogee_km": 356.08783261085773,
      "perigee_km": 348.6825082875994,
      "latitude_deg": -29.549928509633997,
      "longitude_deg": -89.94612123341777,
      "height_km": 357.7967240687224,
      "semi_major_axis_km": 6730.522170449229,
      "eccentricity": 0.00055013,
      "inclination_deg": 53.042,
      "raan_deg": 217.7325,
      "arg_perigee_deg": 338.913,
      "mean_anomaly_deg": 343.2826,
      "mean_motion_rev_day": 15.72279034
    },
    {
      "epoch": "2026-04-05T14:00:03.000384Z",
      "apogee_km": 354.93286617639114,
      "perigee_km": 346.8913833103579,
      "latitude_deg": -34.79147678356001,
      "longitude_deg": 135.8953351496035,
      "height_km": 358.43271237560435,
      "semi_major_axis_km": 6729.049124743375,
      "eccentricity": 0.00059752,
      "inclination_deg": 53.0416,
      "raan_deg": 211.1164,
      "arg_perigee_deg": 344.1632,
      "mean_anomaly_deg": 330.6144,
      "mean_motion_rev_day": 15.7279534
    },
    {
      "epoch": "2026-04-05T20:00:03.000384Z",
      "apogee_km": 355.08319296636546,
      "perigee_km": 346.619471442119,
      "latitude_deg": -48.40023201844376,
      "longitude_deg": 18.306618260894073,
      "height_km": 364.94474079306116,
      "semi_major_axis_km": 6728.988332204242,
      "eccentricity": 0.0006289,
      "inclination_deg": 53.0433,
      "raan_deg": 209.8755,
      "arg_perigee_deg": 345.0811,
      "mean_anomaly_deg": 306.0399,
      "mean_motion_rev_day": 15.72816654
    },
    {
      "epoch": "2026-04-06T06:00:02.000160Z",
      "apogee_km": 354.53463227945304,
      "perigee_km": 346.4314897123959,
      "latitude_deg": 36.68396978700931,
      "longitude_deg": 69.37839280023668,
      "height_km": 356.7412117910422,
      "semi_major_axis_km": 6728.620060995924,
      "eccentricity": 0.00060214,
      "inclination_deg": 53.0415,
      "raan_deg": 207.8042,
      "arg_perigee_deg": 345.5407,
      "mean_anomaly_deg": 146.2193,
      "mean_motion_rev_day": 15.72945781
    },
    {
      "epoch": "2026-04-07T14:00:01.999872Z",
      "apogee_km": 353.79876853325095,
      "perigee_km": 344.8784050042186,
      "latitude_deg": 39.56701832906567,
      "longitude_deg": -62.86983356122047,
      "height_km": 356.03756423079517,
      "semi_major_axis_km": 6727.4755867687345,
      "eccentricity": 0.00066298,
      "inclination_deg": 53.0426,
      "raan_deg": 201.1822,
      "arg_perigee_deg": 351.0761,
      "mean_anomaly_deg": 136.2215,
      "mean_motion_rev_day": 15.73347181
    },
    {
      "epoch": "2026-04-07T20:00:00.999360Z",
      "apogee_km": 353.6737934280318,
      "perigee_km": 344.4333244762547,
      "latitude_deg": 50.93433314612258,
      "longitude_deg": 176.64006403015446,
      "height_km": 356.8622252691223,
      "semi_major_axis_km": 6727.190558952143,
      "eccentricity": 0.0006868,
      "inclination_deg": 53.0409,
      "raan_deg": 199.9396,
      "arg_perigee_deg": 351.1106,
      "mean_anomaly_deg": 112.9905,
      "mean_motion_rev_day": 15.73447175
    },
    {
      "epoch": "2026-04-08T16:00:01.999584Z",
      "apogee_km": 353.24392462654396,
      "perigee_km": 343.72091498153986,
      "latitude_deg": 25.442669799173494,
      "longitude_deg": -81.98892072329437,
      "height_km": 353.7602391604631,
      "semi_major_axis_km": 6726.619419804042,
      "eccentricity": 0.00070786,
      "inclination_deg": 53.0405,
      "raan_deg": 195.7979,
      "arg_perigee_deg": 354.4504,
      "mean_anomaly_deg": 153.0873,
      "mean_motion_rev_day": 15.73647575
    },
    {
      "epoch": "2026-04-09T20:00:01.999008Z",
      "apogee_km": 352.3434136302476,
      "perigee_km": 342.5872548841744,
      "latitude_deg": -51.74999819420067,
      "longitude_deg": -19.73564440869417,
      "height_km": 364.18531564849206,
      "semi_major_axis_km": 6725.602334257211,
      "eccentricity": 0.0007253,
      "inclination_deg": 53.0402,
      "raan_deg": 189.995,
      "arg_perigee_deg": 357.2763,
      "mean_anomaly_deg": 284.1118,
      "mean_motion_rev_day": 15.74004553
    }
  ]
}